33088,2019,10,31,00,00,AAXX 31001 33088 32997 80000 11014 21017 30085 40284 52001 8805/ 555 1/001=
33135,2019,10,31,00,00,AAXX 31001 33135 329// 00000 11067 21083 30125 40282 52006 555 1/108=
33177,2019,10,31,00,00,AAXX 31001 33177 32997 22701 10009 21008 30045 40290 52001 82030 555 1/102=
33261,2019,10,31,00,00,AAXX 31001 33261 32997 02701 11046 21066 30076 40268 52005 555 1/107=
33275,2019,10,31,00,00,AAXX 31001 33275 32997 02903 11051 21080 30023 40258 52006 555 1/106=
33301,2019,10,31,00,00,AAXX 31001 33301 /1597 80000 10001 21005 39995 40287 54000 70281 8455/ 555 1/001 69901=
33317,2019,10,31,00,00,AAXX 31001 33317 325// 70000 11004 21016 39938 40287 54000 85530 555 1/001=
33325,2019,10,31,00,00,AAXX 31001 33325 31996 00000 11029 21036 30006 40286 54000 71000 555 1/105=
33345,2019,10,31,00,00,AAXX 31001 33345 32998 40000 11020 21073 30066 40280 51004 82031 555 10104=
33377,2019,10,31,00,00,AAXX 31001 33377 32997 00000 11030 21093 30067 40270 52003 555 1/103=
33393,2019,10,31,00,00,AAXX 31001 33393 31956 60000 11016 21030 39895 40303 52001 71011 86030 555 1/102=
33415,2019,10,31,00,00,AAXX 31001 33415 32797 63102 11015 21026 39880 40294 55003 86500 555 1/104=
33429,2019,10,31,00,00,AAXX 31001 33429 32997 73201 11014 21031 39852 40291 54000 85031 555 1/103=
33466,2019,10,31,00,00,AAXX 31001 33466 31959 02701 11040 21055 30084 40281 52006 71000 555 14106=
33506,2019,10,31,00,00,AAXX 31001 33506 32997 02601 11034 21077 30058 40263 53005 555 1/105=
33526,2019,10,31,00,00,AAXX 31001 33526 32960 50000 11012 21022 39945 40299 58001 80001 555 1/000=
33562,2019,10,31,00,00,AAXX 31001 33562 32963 03203 11042 21054 39913 40293 51001 555 1/104=
33587,2019,10,31,00,00,AAXX 31001 33587 329// 03001 11018 21037 30006 40280 52002 555 1/104=
33614,2019,10,31,00,00,AAXX 31001 33614 32972 00101 10000 21060 30162 40271 52006 555 1/103=
33631,2019,10,31,00,00,AAXX 31001 33631 32997 00000 11002 21029 30128 40279 52004 555 1/102=
33658,2019,10,31,00,00,AAXX 31001 33658 32782 80000 10043 21028 39981 40287 57002 885// 333 88650 555 1/003=
33663,2019,10,31,00,00,AAXX 31001 33663 32997 02601 11006 21024 30186 40286 52004 555 1/102=
33711,2019,10,31,00,00,AAXX 31001 33711 32960 00000 11024 21033 30056 40275 52005 555 1/108=
33761,2019,10,31,00,00,AAXX 31001 33761 32998 83201 10004 21034 30049 40280 52006 8805/ 555 1/000=
33791,2019,10,31,00,00,AAXX 31001 33791 32997 40303 11001 21042 30111 40267 52006 84030 555 1/101=
33837,2019,10,31,00,00,AAXX 31001 33837 32981 60302 10066 20003 30218 40271 52007 80001 555 1/005=
33902,2019,10,31,00,00,AAXX 31001 33902 32597 80501 10024 21010 30202 40270 52006 88500 555 1/002=
33924,2019,10,31,00,00,AAXX 31001 33924 42/70 81002 10060 21002 30240 40253 52002 8803/==
33946,2019,10,31,00,00,AAXX 31001 33946 42/60 60605 10046 21006 30023 40248 58002 86030==
33983,2019,10,31,00,00,AAXX 31001 33983 42570 33503 10041 20005 30178 40240 52005 82530==
33998,2019,10,31,00,00,AAXX 31001 33998 42460 50601 10003 21010 38861 57004 83242==
34300,2019,10,31,00,00,AAXX 31001 34300 32960 02803 11016 21085 30050 40247 52006 555 1/103=
34415,2019,10,31,00,00,AAXX 31001 34415 32997 00000 11026 21074 30143 40243 52007 555 1/105=
34504,2019,10,31,00,00,AAXX 31001 34504 32997 03604 11010 21077 30076 40261 52006 555 1/102=
34601,2019,10,31,00,00,AAXX 31001 34601 32960 33203 11026 21048 30122 40264 52008 80001 555 1/103=
34712,2019,10,31,00,00,AAXX 31001 34712 32997 03404 10000 21034 30154 40242 52011 555 1/104=